start=new Date('2022-09-30T00:00:00.000Z').valueOf();
sats=[{"SEMIMAJOR_AXIS":"6925.376","INCLINATION":"53.0542","MEAN_ELEMENT_THEORY":"SGP4","COUNTRY_CODE":"US","NORAD_CAT_ID":"47639","FILE":"3586894","ARG_OF_PERICENTER":"67.4397","ECCENTRICITY":"0.00016400","LAUNCH_DATE":"2021-02-16","OBJECT_TYPE":"PAYLOAD","CLASSIFICATION_TYPE":"U","EPOCH":"2022-09-29T11:07:50.844288","RA_OF_ASC_NODE":"295.5365","APOAPSIS":"548.376","CENTER_NAME":"EARTH","REF_FRAME":"TEME","PERIAPSIS":"546.105","TIME_SYSTEM":"UTC","MEAN_MOTION_DOT":"0.00001233","REV_AT_EPOCH":"9075","EPHEMERIS_TYPE":"0","MEAN_ANOMALY":"292.6766","TLE_LINE2":"2 47639  53.0542 295.5365 0001640  67.4397 292.6766 15.06391141 90752","GP_ID":"213804514","TLE_LINE1":"1 47639U 21012V   22272.46378292  .00001233  00000-0  10166-3 0  9997","RCS_SIZE":"LARGE","DECAY_DATE":null,"BSTAR":"0.00010166000000","ELEMENT_SET_NO":"999","OBJECT_NAME":"STARLINK-2016","MEAN_MOTION_DDOT":"0.0000000000000","PERIOD":"95.593","SITE":"AFETR","MEAN_MOTION":"15.06391141","OBJECT_ID":"2021-012V"},{"EPHEMERIS_TYPE":"0","REV_AT_EPOCH":"9055","MEAN_MOTION_DOT":"-0.00000459","TIME_SYSTEM":"UTC","PERIAPSIS":"546.085","REF_FRAME":"TEME","CENTER_NAME":"EARTH","APOAPSIS":"548.372","CLASSIFICATION_TYPE":"U","RA_OF_ASC_NODE":"313.7615","EPOCH":"2022-09-29T20:33:06.212160","OBJECT_TYPE":"PAYLOAD","LAUNCH_DATE":"2021-02-16","ECCENTRICITY":"0.00016510","ARG_OF_PERICENTER":"64.6921","FILE":"3587117","NORAD_CAT_ID":"47640","COUNTRY_CODE":"US","MEAN_ELEMENT_THEORY":"SGP4","SEMIMAJOR_AXIS":"6925.363","INCLINATION":"53.0545","OBJECT_ID":"2021-012W","MEAN_MOTION":"15.06395215","SITE":"AFETR","PERIOD":"95.592","MEAN_MOTION_DDOT":"0.0000000000000","OBJECT_NAME":"STARLINK-2018","ELEMENT_SET_NO":"999","BSTAR":"-0.00001192300000","DECAY_DATE":null,"RCS_SIZE":"LARGE","TLE_LINE1":"1 47640U 21012W   22272.85632190 -.00000459  00000-0 -11923-4 0  9996","GP_ID":"213835681","TLE_LINE2":"2 47640  53.0545 313.7615 0001651  64.6921 295.4239 15.06395215 90552","MEAN_ANOMALY":"295.4239"},{"OBJECT_ID":"2021-012X","MEAN_MOTION":"15.06389499","PERIOD":"95.593","SITE":"AFETR","OBJECT_NAME":"STARLINK-2019","MEAN_MOTION_DDOT":"0.0000000000000","ELEMENT_SET_NO":"999","BSTAR":"-0.00005807100000","DECAY_DATE":null,"RCS_SIZE":"LARGE","GP_ID":"213805017","TLE_LINE1":"1 47641U 21012X   22272.26979896 -.00001146  00000-0 -58071-4 0  9998","TLE_LINE2":"2 47641  53.0533 221.4045 0001371  74.1356 285.9784 15.06389499 91770","MEAN_ANOMALY":"285.9784","EPHEMERIS_TYPE":"0","REV_AT_EPOCH":"9177","MEAN_MOTION_DOT":"-0.00001146","TIME_SYSTEM":"UTC","PERIAPSIS":"546.296","REF_FRAME":"TEME","CENTER_NAME":"EARTH","APOAPSIS":"548.195","RA_OF_ASC_NODE":"221.4045","EPOCH":"2022-09-29T06:28:30.630144","CLASSIFICATION_TYPE":"U","OBJECT_TYPE":"PAYLOAD","LAUNCH_DATE":"2021-02-16","ECCENTRICITY":"0.00013710","ARG_OF_PERICENTER":"74.1356","FILE":"3586894","NORAD_CAT_ID":"47641","COUNTRY_CODE":"US","MEAN_ELEMENT_THEORY":"SGP4","SEMIMAJOR_AXIS":"6925.381","INCLINATION":"53.0533"},{"MEAN_MOTION":"15.06381148","PERIOD":"95.593","SITE":"AFETR","OBJECT_NAME":"STARLINK-2020","MEAN_MOTION_DDOT":"0.0000000000000","ELEMENT_SET_NO":"999","BSTAR":"-0.00004792400000","OBJECT_ID":"2021-012Y","GP_ID":"213803765","TLE_LINE1":"1 47642U 21012Y   22272.39789044 -.00000995  00000-0 -47924-4 0  9993","TLE_LINE2":"2 47642  53.0550 310.8096 0001531  55.5635 304.5499 15.06381148 90548","MEAN_ANOMALY":"304.5499","DECAY_DATE":null,"RCS_SIZE":"LARGE","EPOCH":"2022-09-29T09:32:57.734016","CLASSIFICATION_TYPE":"U","RA_OF_ASC_NODE":"310.8096","OBJECT_TYPE":"PAYLOAD","LAUNCH_DATE":"2021-02-16","EPHEMERIS_TYPE":"0","MEAN_MOTION_DOT":"-0.00000995","REV_AT_EPOCH":"9054","TIME_SYSTEM":"UTC","PERIAPSIS":"546.211","REF_FRAME":"TEME","CENTER_NAME":"EARTH","APOAPSIS":"548.332","NORAD_CAT_ID":"47642","COUNTRY_CODE":"US","MEAN_ELEMENT_THEORY":"SGP4","SEMIMAJOR_AXIS":"6925.406","INCLINATION":"53.0550","ECCENTRICITY":"0.00015310","ARG_OF_PERICENTER":"55.5635","FILE":"3586894"},{"RA_OF_ASC_NODE":"295.7687","EPOCH":"2022-09-29T09:53:31.690176","CLASSIFICATION_TYPE":"U","LAUNCH_DATE":"2021-02-16","OBJECT_TYPE":"PAYLOAD","TIME_SYSTEM":"UTC","EPHEMERIS_TYPE":"0","MEAN_MOTION_DOT":"-0.00000214","REV_AT_EPOCH":"9076","CENTER_NAME":"EARTH","APOAPSIS":"548.361","PERIAPSIS":"546.130","REF_FRAME":"TEME","COUNTRY_CODE":"US","NORAD_CAT_ID":"47643","SEMIMAJOR_AXIS":"6925.381","INCLINATION":"53.0536","MEAN_ELEMENT_THEORY":"SGP4","ARG_OF_PERICENTER":"66.8134","ECCENTRICITY":"0.00016110","FILE":"3586894","OBJECT_NAME":"STARLINK-2022","MEAN_MOTION_DDOT":"0.0000000000000","ELEMENT_SET_NO":"999","MEAN_MOTION":"15.06389560","PERIOD":"95.593","SITE":"AFETR","BSTAR":"0.00000456220000","OBJECT_ID":"2021-012Z","TLE_LINE1":"1 47643U 21012Z   22272.41217234 -.00000214  00000-0  45622-5 0  9991","GP_ID":"213804015","TLE_LINE2":"2 47643  53.0536 295.7687 0001611  66.8134 293.3024 15.06389560 90767","MEAN_ANOMALY":"293.3024","DECAY_DATE":null,"RCS_SIZE":"LARGE"},{"MEAN_MOTION":"15.06407942","PERIOD":"95.592","SITE":"AFETR","OBJECT_NAME":"STARLINK-2026","MEAN_MOTION_DDOT":"0.0000000000000","ELEMENT_SET_NO":"999","BSTAR":"-0.00011875000000","OBJECT_ID":"2021-012AA","TLE_LINE1":"1 47644U 21012AA  22272.42506467 -.00002050  00000-0 -11875-3 0  9994","GP_ID":"213809955","TLE_LINE2":"2 47644  53.0548 315.7089 0001738  81.6666 278.4520 15.06407942 89976","MEAN_ANOMALY":"278.4520","DECAY_DATE":null,"RCS_SIZE":"LARGE","EPOCH":"2022-09-29T10:12:05.587488","RA_OF_ASC_NODE":"315.7089","CLASSIFICATION_TYPE":"U","OBJECT_TYPE":"PAYLOAD","LAUNCH_DATE":"2021-02-16","EPHEMERIS_TYPE":"0","MEAN_MOTION_DOT":"-0.00002050","REV_AT_EPOCH":"8997","TIME_SYSTEM":"UTC","PERIAPSIS":"545.986","REF_FRAME":"TEME","CENTER_NAME":"EARTH","APOAPSIS":"548.393","NORAD_CAT_ID":"47644","COUNTRY_CODE":"US","MEAN_ELEMENT_THEORY":"SGP4","INCLINATION":"53.0548","SEMIMAJOR_AXIS":"6925.324","ECCENTRICITY":"0.00017380","ARG_OF_PERICENTER":"81.6666","FILE":"3586934"},{"BSTAR":"0.00000246110000","OBJECT_NAME":"STARLINK-2027","MEAN_MOTION_DDOT":"0.0000000000000","ELEMENT_SET_NO":"999","MEAN_MOTION":"15.06391091","SITE":"AFETR","PERIOD":"95.593","OBJECT_ID":"2021-012AB","MEAN_ANOMALY":"296.2347","GP_ID":"213805517","TLE_LINE1":"1 47645U 21012AB  22272.44630186 -.00000245  00000-0  24611-5 0  9990","TLE_LINE2":"2 47645  53.0555 285.8529 0001509  63.8797 296.2347 15.06391091 90888","RCS_SIZE":"LARGE","DECAY_DATE":null,"LAUNCH_DATE":"2021-02-16","OBJECT_TYPE":"PAYLOAD","EPOCH":"2022-09-29T10:42:40.480704","RA_OF_ASC_NODE":"285.8529","CLASSIFICATION_TYPE":"U","CENTER_NAME":"EARTH","APOAPSIS":"548.286","PERIAPSIS":"546.196","REF_FRAME":"TEME","TIME_SYSTEM":"UTC","EPHEMERIS_TYPE":"0","MEAN_MOTION_DOT":"-0.00000245","REV_AT_EPOCH":"9088","INCLINATION":"53.0555","SEMIMAJOR_AXIS":"6925.376","MEAN_ELEMENT_THEORY":"SGP4","COUNTRY_CODE":"US","NORAD_CAT_ID":"47645","FILE":"3586894","ARG_OF_PERICENTER":"63.8797","ECCENTRICITY":"0.00015090"},{"COUNTRY_CODE":"US","NORAD_CAT_ID":"47646","SEMIMAJOR_AXIS":"6925.384","INCLINATION":"53.0541","MEAN_ELEMENT_THEORY":"SGP4","ARG_OF_PERICENTER":"59.3683","ECCENTRICITY":"0.00016990","FILE":"3586894","EPOCH":"2022-09-29T08:47:53.300832","RA_OF_ASC_NODE":"251.2124","CLASSIFICATION_TYPE":"U","LAUNCH_DATE":"2021-02-16","OBJECT_TYPE":"PAYLOAD","TIME_SYSTEM":"UTC","EPHEMERIS_TYPE":"0","MEAN_MOTION_DOT":"-0.00000089","REV_AT_EPOCH":"9136","CENTER_NAME":"EARTH","APOAPSIS":"548.426","PERIAPSIS":"546.072","REF_FRAME":"TEME","TLE_LINE1":"1 47646U 21012AC  22272.36658913 -.00000089  00000-0  12954-4 0  9992","GP_ID":"213804265","TLE_LINE2":"2 47646  53.0541 251.2124 0001699  59.3683 300.7473 15.06388457 91363","MEAN_ANOMALY":"300.7473","DECAY_DATE":null,"RCS_SIZE":"LARGE","OBJECT_NAME":"STARLINK-2028","MEAN_MOTION_DDOT":"0.0000000000000","ELEMENT_SET_NO":"999","MEAN_MOTION":"15.06388457","PERIOD":"95.593","SITE":"AFETR","BSTAR":"0.00001295400000","OBJECT_ID":"2021-012AC"},{"MEAN_ANOMALY":"302.9135","TLE_LINE1":"1 47647U 21012AD  22272.83421893 -.00001155  00000-0 -58662-4 0  9992","GP_ID":"213835939","TLE_LINE2":"2 47647  53.0553 313.8716 0001637  57.2012 302.9135 15.06381156 90552","RCS_SIZE":"LARGE","DECAY_DATE":null,"BSTAR":"-0.00005866200000","OBJECT_NAME":"STARLINK-2030","MEAN_MOTION_DDOT":"0.0000000000000","ELEMENT_SET_NO":"999","MEAN_MOTION":"15.06381156","SITE":"AFETR","PERIOD":"95.593","OBJECT_ID":"2021-012AD","INCLINATION":"53.0553","SEMIMAJOR_AXIS":"6925.406","MEAN_ELEMENT_THEORY":"SGP4","COUNTRY_CODE":"US","NORAD_CAT_ID":"47647","FILE":"3587117","ARG_OF_PERICENTER":"57.2012","ECCENTRICITY":"0.00016370","LAUNCH_DATE":"2021-02-16","OBJECT_TYPE":"PAYLOAD","RA_OF_ASC_NODE":"313.8716","EPOCH":"2022-09-29T20:01:16.515552","CLASSIFICATION_TYPE":"U","CENTER_NAME":"EARTH","APOAPSIS":"548.405","PERIAPSIS":"546.138","REF_FRAME":"TEME","TIME_SYSTEM":"UTC","EPHEMERIS_TYPE":"0","MEAN_MOTION_DOT":"-0.00001155","REV_AT_EPOCH":"9055"},{"BSTAR":"-0.00003609200000","SITE":"AFETR","PERIOD":"95.593","MEAN_MOTION":"15.06392034","ELEMENT_SET_NO":"999","OBJECT_NAME":"STARLINK-2031","MEAN_MOTION_DDOT":"0.0000000000000","OBJECT_ID":"2021-012AE","MEAN_ANOMALY":"296.8406","TLE_LINE2":"2 47648  53.0542 294.2092 0001557  63.2742 296.8406 15.06392034 90827","TLE_LINE1":"1 47648U 21012AE  22272.75864373 -.00000819  00000-0 -36092-4 0  9997","GP_ID":"213835682","RCS_SIZE":"MEDIUM","DECAY_DATE":null,"OBJECT_TYPE":"PAYLOAD","LAUNCH_DATE":"2021-02-16","RA_OF_ASC_NODE":"294.2092","EPOCH":"2022-09-29T18:12:26.818272","CLASSIFICATION_TYPE":"U","REF_FRAME":"TEME","PERIAPSIS":"546.160","APOAPSIS":"548.316","CENTER_NAME":"EARTH","MEAN_MOTION_DOT":"-0.00000819","REV_AT_EPOCH":"9082","EPHEMERIS_TYPE":"0","TIME_SYSTEM":"UTC","MEAN_ELEMENT_THEORY":"SGP4","SEMIMAJOR_AXIS":"6925.373","INCLINATION":"53.0542","NORAD_CAT_ID":"47648","COUNTRY_CODE":"US","FILE":"3587117","ECCENTRICITY":"0.00015570","ARG_OF_PERICENTER":"63.2742"}];
